[
    {
        "CCSDS_OMM_VERS": "3.0",
        "COMMENT": "GENERATED VIA SPACE-TRACK.ORG API",
        "CREATION_DATE": "2025-05-02T17:35:09",
        "ORIGINATOR": "18 SPCS",
        "OBJECT_NAME": "COSMOS 2478 (GLONASS)",
        "OBJECT_ID": "2011-071A",
        "CENTER_NAME": "EARTH",
        "REF_FRAME": "TEME",
        "TIME_SYSTEM": "UTC",
        "MEAN_ELEMENT_THEORY": "SGP4",
        "EPOCH": "2025-05-02T04:13:38.750880",
        "MEAN_MOTION": "2.13015479",
        "ECCENTRICITY": "0.00161710",
        "INCLINATION": "65.6891",
        "RA_OF_ASC_NODE": "328.7055",
        "ARG_OF_PERICENTER": "221.0153",
        "MEAN_ANOMALY": "131.8744",
        "EPHEMERIS_TYPE": "0",
        "CLASSIFICATION_TYPE": "U",
        "NORAD_CAT_ID": "37938",
        "ELEMENT_SET_NO": "999",
        "REV_AT_EPOCH": "10438",
        "BSTAR": "0.00000000000000",
        "MEAN_MOTION_DOT": "-0.00000051",
        "MEAN_MOTION_DDOT": "0.0000000000000",
        "SEMIMAJOR_AXIS": "25514.931",
        "PERIOD": "676.007",
        "APOAPSIS": "19178.056",
        "PERIAPSIS": "19095.536",
        "OBJECT_TYPE": "PAYLOAD",
        "RCS_SIZE": "LARGE",
        "COUNTRY_CODE": "CIS",
        "LAUNCH_DATE": "2011-11-28",
        "SITE": "PKMTR",
        "DECAY_DATE": null,
        "FILE": "4716995",
        "GP_ID": "286676414",
        "TLE_LINE0": "0 COSMOS 2478 (GLONASS)",
        "TLE_LINE1": "1 37938U 11071A   25122.17614295 -.00000051  00000-0  00000-0 0  9994",
        "TLE_LINE2": "2 37938  65.6891 328.7055 0016171 221.0153 131.8744  2.13015479104383"
    }
]